BEIDOU-2 IGSO-1 (C06)   
1 36828U 10036A   25286.65585368 -.00000127  00000+0  00000+0 0  9995
2 36828  54.2757 165.1930 0050982 216.9538 341.8731  1.00293477 55620
BEIDOU-2 G4 (C04)       
1 37210U 10057A   25286.87599325 -.00000124  00000+0  00000+0 0  9993
2 37210   3.0326  70.1084 0009717 176.6564 251.2583  1.00270158 54827
BEIDOU-2 IGSO-2 (C07)   
1 37256U 10068A   25286.90322479 -.00000184  00000+0  00000+0 0  9999
2 37256  47.9929 274.8819 0047814 217.1093 320.7379  1.00250528 54329
BEIDOU-2 IGSO-3 (C08)   
1 37384U 11013A   25286.74982023 -.00000186  00000+0  00000+0 0  9993
2 37384  62.0655  42.4884 0036245 181.8425 175.3814  1.00285081 53181
BEIDOU-2 IGSO-4 (C09)   
1 37763U 11038A   25286.69802807 -.00000078  00000+0  00000+0 0  9996
2 37763  54.5779 167.8905 0145037 230.4430 327.1646  1.00254554 52177
BEIDOU-2 IGSO-5 (C10)   
1 37948U 11073A   25286.93439895 -.00000161  00000+0  00000+0 0  9993
2 37948  48.1312 274.5901 0109698 221.8155 317.3523  1.00259697 50667
BEIDOU-2 G5 (C05)       
1 38091U 12008A   25286.92729225  .00000044  00000+0  00000+0 0  9999
2 38091   2.9568  70.8943 0008803 221.2187 123.2314  1.00275421 49894
BEIDOU-2 M3 (C11)       
1 38250U 12018A   25284.57707275 -.00000048  00000+0  00000+0 0  9992
2 38250  55.9709 313.2475 0024599 268.6291  91.1341  1.86229691 91310
BEIDOU-2 M4 (C12)       
1 38251U 12018B   25284.50946909 -.00000047  00000+0  00000+0 0  9994
2 38251  55.8732 312.4838 0015726 269.0374  90.8267  1.86231994 91311
BEIDOU-2 M6 (C14)       
1 38775U 12050B   25286.36814778  .00000001  00000+0  00000+0 0  9994
2 38775  56.3269  71.0693 0010572 355.2873   4.7004  1.86230821 88717
BEIDOU-2 G6 (C02)       
1 38953U 12059A   25286.93231894 -.00000187  00000+0  00000+0 0  9992
2 38953   3.7934  76.0853 0006175 302.2174  64.1444  1.00272873 47445
BEIDOU-3S IGSO-1S (C31) 
1 40549U 15019A   25286.93547228 -.00000134  00000+0  00000+0 0  9998
2 40549  49.6639 298.4278 0040908 197.0837 314.6492  1.00252611 38601
BEIDOU-3S M2S (C58)     
1 40748U 15037A   25284.17720052 -.00000045  00000+0  00000+0 0  9992
2 40748  55.0922 310.6117 0012865 258.1042 101.7933  1.86229079 69486
BEIDOU-3S M1S (C57)     
1 40749U 15037B   25283.87878347 -.00000045  00000+0  00000+0 0  9990
2 40749  55.0889 310.6122 0002651 351.7285   8.3099  1.86253828 69480
BEIDOU-3S IGSO-2S (C56) 
1 40938U 15053A   25286.78791455 -.00000132  00000+0  00000+0 0  9992
2 40938  49.6083 261.7129 0061952 189.5386 310.4254  1.00283747 36883
BEIDOU-2 IGSO-6 (C13)   
1 41434U 16021A   25285.84087565 -.00000159  00000+0  00000+0 0  9995
2 41434  59.8833  40.5087 0057493 228.7059 149.8886  1.00265018 35004
BEIDOU-2 G7 (C03)       
1 41586U 16037A   25286.93760563 -.00000366  00000+0  00000+0 0  9997
2 41586   1.6080  66.9645 0005522 340.9050  62.9169  1.00276084  4423
BEIDOU-3 M1 (C19)       
1 43001U 17069A   25286.13368219  .00000001  00000+0  00000+0 0  9996
2 43001  56.4759  71.2354 0007185 312.2114  47.7251  1.86230976 54000
BEIDOU-3 M2 (C20)       
1 43002U 17069B   25284.99803191 -.00000002  00000+0  00000+0 0  9994
2 43002  56.4735  71.3093 0005504 350.8749   9.1104  1.86230682 53979
BEIDOU-3 M7 (C27)       
1 43107U 18003A   25285.27893638 -.00000047  00000+0  00000+0 0  9995
2 43107  54.5494 310.9523 0002361  92.0867 267.9810  1.86232379 52736
BEIDOU-3 M8 (C28)       
1 43108U 18003B   25283.07553566 -.00000045  00000+0  00000+0 0  9993
2 43108  54.5441 311.0121 0004949 260.2389  99.7503  1.86230831 52705
BEIDOU-3 M4 (C22)       
1 43207U 18018A   25285.66495917  .00000000  00000+0  00000+0 0  9991
2 43207  56.4340  71.3233 0005038  37.2745 322.7571  1.86230883 52130
BEIDOU-3 M3 (C21)       
1 43208U 18018B   25285.73152773  .00000000  00000+0  00000+0 0  9990
2 43208  56.4337  71.3252 0005112 334.0428  25.9283  1.86230956 52130
BEIDOU-3 M9 (C29)       
1 43245U 18029A   25285.41076653 -.00000043  00000+0  00000+0 0  9998
2 43245  54.4193 308.6062 0002191 246.4052 113.6096  1.86232463 51284
BEIDOU-3 M10 (C30)      
1 43246U 18029B   25285.88265653 -.00000043  00000+0  00000+0 0  9990
2 43246  54.4167 308.6177 0002995 354.7766   5.2582  1.86229014 51273
BEIDOU-2 IGSO-7 (C16)   
1 43539U 18057A   25286.63436781 -.00000136  00000+0  00000+0 0  9995
2 43539  55.1675 165.1989 0091961 235.9792 322.1803  1.00275236 26651
BEIDOU-3 M5 (C23)       
1 43581U 18062A   25280.20091477  .00000030  00000+0  00000+0 0  9996
2 43581  54.0922 190.9072 0003398 310.1276  49.8853  1.86228524 48924
BEIDOU-3 M6 (C24)       
1 43582U 18062B   25285.43391539 -.00000011  00000+0  00000+0 0  9999
2 43582  54.0911 190.7182 0006536  31.3274 328.7626  1.86229698 49022
BEIDOU-3 M12 (C26)      
1 43602U 18067A   25286.44496706 -.00000026  00000+0  00000+0 0  9997
2 43602  54.1850 189.4093 0008566  34.2907 325.8140  1.86227562 48525
BEIDOU-3 M11 (C25)      
1 43603U 18067B   25286.57932057 -.00000028  00000+0  00000+0 0  9998
2 43603  54.1823 189.3689 0005104  25.8801 334.1944  1.86227086 48559
BEIDOU-3 M13 (C32)      
1 43622U 18072A   25281.70343855 -.00000001  00000+0  00000+0 0  9998
2 43622  56.6124  70.9597 0015990 272.2089  87.6036  1.86276138 47973
BEIDOU-3 M14 (C33)      
1 43623U 18072B   25285.86493596 -.00000001  00000+0  00000+0 0  9998
2 43623  56.4087  70.8286 0002808  12.5114 347.4924  1.86230954 48040
BEIDOU-3 M16 (C35)      
1 43647U 18078A   25284.41276971 -.00000044  00000+0  00000+0 0  9993
2 43647  54.3167 308.7002 0005983  18.7802 341.2805  1.86232174 47528
BEIDOU-3 M15 (C34)      
1 43648U 18078B   25285.07890624 -.00000044  00000+0  00000+0 0  9994
2 43648  54.3116 308.6779 0002554  20.1037 339.9442  1.86232124 47550
BEIDOU-3 G1 (C59)       
1 43683U 18085A   25286.92197520 -.00000288  00000+0  00000+0 0  9991
2 43683   2.9547 104.3077 0003015  15.9932  14.4405  1.00271001 25594
BEIDOU-3 M17 (C36)      
1 43706U 18093A   25281.22535220  .00000034  00000+0  00000+0 0  9995
2 43706  54.1755 190.8460 0008107 297.9561 252.8540  1.86228101 46849
BEIDOU-3 M18 (C37)      
1 43707U 18093B   25279.19124669  .00000023  00000+0  00000+0 0  9998
2 43707  54.1766 190.9068 0007139 332.6915  27.3070  1.86229821 46800
BEIDOU-3 IGSO-1 (C38)   
1 44204U 19023A   25286.74365312 -.00000221  00000+0  00000+0 0  9997
2 44204  58.3517  40.1971 0026011 218.0715 149.9231  1.00262122  4741
BEIDOU-2 G8 (C01)       
1 44231U 19027A   25286.94427899 -.00000260  00000+0  00000+0 0  9995
2 44231   1.5071  74.4569 0007123 255.6846 177.1088  1.00270448 23614
BEIDOU-3 IGSO-2 (C39)   
1 44337U 19035A   25285.63047105 -.00000129  00000+0  00000+0 0  9998
2 44337  55.2139 161.0401 0037235 203.0807   2.2752  1.00290119 23186
BEIDOU-3 M24 (C46)      
1 44542U 19061A   25279.26270484  .00000023  00000+0  00000+0 0  9997
2 44542  54.4036 191.2933 0009011  10.1370 349.9168  1.86229365 41067
BEIDOU-3 M23 (C45)      
1 44543U 19061B   25281.30105446  .00000034  00000+0  00000+0 0  9993
2 44543  54.4016 191.1929 0005718   0.3063 199.1630  1.86229353 41101
BEIDOU-3 IGSO-3 (C40)   
1 44709U 19073A   25286.39732410 -.00000171  00000+0  00000+0 0  9994
2 44709  55.2272 283.5662 0045220 192.1117 167.7604  1.00262026 21986
BEIDOU-3 M22 (C44)      
1 44793U 19078A   25285.01005928 -.00000044  00000+0  00000+0 0  9996
2 44793  54.1626 308.5521 0004636  24.5560 335.5038  1.86231987 40026
BEIDOU-3 M21 (C43)      
1 44794U 19078B   25285.14631057 -.00000044  00000+0  00000+0 0  9999
2 44794  54.1360 308.5135 0002869   8.9630 351.0796  1.86227647 40036
BEIDOU-3 M19 (C41)      
1 44864U 19090A   25285.93241368  .00000000  00000+0  00000+0 0  9991
2 44864  56.3413  70.9767 0015716 286.0068  76.2711  1.86231235 39632
BEIDOU-3 M20 (C42)      
1 44865U 19090B   25286.86411986  .00000001  00000+0  00000+0 0  9991
2 44865  56.3440  70.9799 0013092 300.7253  55.8309  1.86231249 39623
BEIDOU-3 G2 (C60)       
1 45344U 20017A   25286.93153892 -.00000153  00000+0  00000+0 0  9991
2 45344   2.8877  42.6295 0002652 256.5724 138.9296  1.00272104 20791
BEIDOU-3 G3 (C61)       
1 45807U 20040A   25286.93864353 -.00000366  00000+0  00000+0 0  9998
2 45807   1.8432  65.9332 0004112 304.2518 101.0585  1.00268772 19602
BEIDOU-3 G4 (C62)       
1 56564U 23066A   25286.87599325 -.00000127  00000+0  00000+0 0  9993
2 56564   0.9516 297.7469 0005090 224.5940 335.6361  1.00268254  8927
BEIDOU-3 M28 (C50)      
1 58654U 23207A   25286.83580980 -.00000002  00000+0  00000+0 0  9997
2 58654  55.5323  70.6282 0000260 203.9111 156.0861  1.86229711 12257
BEIDOU-3 M26 (C48)      
1 58655U 23207B   25286.63394781 -.00000002  00000+0  00000+0 0  9998
2 58655  55.5343  70.6212 0001802 227.6430 132.3400  1.86231291 12233
BEIDOU-3 M25 (C47)      
1 61186U 24168B   25286.98447521 -.00000047  00000+0  00000+0 0  9996
2 61186  54.6930 310.7903 0005304 282.8078  69.2985  1.86229924  7190
BEIDOU-3 M27 (C49)      
1 61187U 24168C   25286.12038709 -.00000047  00000+0  00000+0 0  9997
2 61187  54.6892 310.8041 0001585 305.8717 321.8239  1.86229950  4651
